1 41174U 15079A   18116.64524808  .00000013  00000-0  00000+0 0  9996
2 41174  54.9182 183.0538 0005696 289.2080  70.8017  1.70473813 14665
1 41174U 15079A   18117.81842039  .00000020  00000-0  00000+0 0  9993
2 41174  54.9182 183.0214 0005743 289.1462  70.8703  1.70473956 14684
1 41174U 15079A   18118.40500674  .00000022  00000-0  00000-0 0  9998
2 41174  54.9183 183.0051 0005762 289.1261  70.8935  1.70474012 14289
1 41174U 15079A   18120.16476551  .00000026  00000-0  00000+0 0  9993
2 41174  54.9184 182.9566 0005832 289.0016  71.0242  1.70474047 14725
1 41174U 15079A   18121.92451496  .00000024  00000-0  00000+0 0  9997
2 41174  54.9184 182.9080 0005871 288.9730  71.0532  1.70474057 14756
1 41174U 15079A   18122.51109643  .00000024  00000-0  00000-0 0  9998
2 41174  54.9184 182.8918 0005884 288.9404  71.0847  1.70474051 14356
1 41174U 15079A   18123.09767648  .00000023  00000-0  00000-0 0  9996
2 41174  54.9185 182.8757 0005884 288.8414  71.1822  1.70474073 14367
1 41174U 15079A   18123.09767722  .00000023  00000-0  00000+0 0  9998
2 41174  54.9185 182.8757 0005879 288.8897  71.1340  1.70474051 14772
1 41174U 15079A   18123.68425501  .00000023  00000-0  00000-0 0  9990
2 41174  54.9185 182.8595 0005892 288.8738  71.1480  1.70474113 14371
1 41174U 15079A   18125.44399512  .00000025  00000-0  00000-0 0  9990
2 41174  54.9185 182.8109 0005947 288.6969  71.3190  1.70474074 14407
1 41174U 15079A   18126.03057588  .00000027  00000-0  00000+0 0  9991
2 41174  54.9186 182.7947 0005956 288.6677  71.3467  1.70474058 14828
1 41174U 15079A   18128.37690375  .00000037  00000-0  00000-0 0  9999
2 41174  54.9188 182.7299 0006035 288.5576  71.4551  1.70474056 14458
1 41174U 15079A   18128.37690387  .00000037  00000-0  00000+0 0  9991
2 41174  54.9188 182.7299 0006025 288.5604  71.4524  1.70474059 14867
1 41174U 15079A   18130.13666097  .00000048  00000-0  00000+0 0  9991
2 41174  54.9189 182.6813 0006076 288.5466  71.4713  1.70474016 14897
1 41174U 15079A   18130.72324840  .00000053  00000-0  00000-0 0  9990
2 41174  54.9190 182.6652 0006082 288.5484  71.4723  1.70474007 14494
1 41174U 15079A   18132.48301105  .00000065  00000-0  00000-0 0  9997
2 41174  54.9191 182.6166 0006132 288.5680  71.4614  1.70473967 14526
1 41174U 15079A   18132.48301165  .00000065  00000-0  00000+0 0  9992
2 41174  54.9191 182.6165 0006120 288.5662  71.4633  1.70473968 14939
1 41174U 15079A   18132.48301165  .00000065  00000-0  00000-0 0  9993
2 41174  54.9191 182.6165 0006120 288.5662  71.4633  1.70473968 14524
1 41174U 15079A   18134.24276956  .00000074  00000-0  00000+0 0  9997
2 41174  54.9192 182.5679 0006173 288.5541  71.4809  1.70473917 14965
1 41174U 15079A   18134.82935374  .00000075  00000-0  00000-0 0  9999
2 41174  54.9192 182.5517 0006195 288.6010  71.4342  1.70473868 14565
1 41174U 15079A   18136.58909648  .00000071  00000-0  00000-0 0  9995
2 41174  54.9193 182.5031 0006231 288.6480  71.3819  1.70473791 14595
1 41174U 15079A   18137.17567064  .00000067  00000-0  00000-0 0  9998
2 41174  54.9194 182.4869 0006245 288.6428  71.3836  1.70473864 15019
1 41174U 15079A   18137.76224672  .00000063  00000-0  00000-0 0  9994
2 41174  54.9195 182.4707 0006274 288.7031  71.3189  1.70473838 14611
1 41174U 15079A   18139.52197511  .00000050  00000-0  00000-0 0  9997
2 41174  54.9197 182.4220 0006311 288.7534  71.2555  1.70473817 14649
1 41174U 15079A   18139.52197573  .00000050  00000-0  00000-0 0  9995
2 41174  54.9197 182.4220 0006302 288.7392  71.2697  1.70473811 15058
1 41174U 15079A   18140.69513284  .00000045  00000-0  00000+0 0  9999
2 41174  54.9199 182.3896 0006324 288.8305  71.1722  1.70473780 15072
1 41174U 15079A   18141.86829603  .00000045  00000-0  00000+0 0  9994
2 41174  54.9200 182.3572 0006346 288.8781  71.1222  1.70473777 15091
1 41174U 15079A   18143.04146389  .00000049  00000-0  00000+0 0  9993
2 41174  54.9201 182.3248 0006367 288.9076  71.0941  1.70473813 15114
1 41174U 15079A   18147.73415063  .00000064  00000-0  00000+0 0  9998
2 41174  54.9207 182.1952 0006468 288.9916  71.0216  1.70473851 15190
1 41174U 15079A   18147.73415157  .00000064  00000-0  00000-0 0  9993
2 41174  54.9208 182.1952 0006472 289.0085  71.0047  1.70473830 14788
1 41174U 15079A   18151.25362973  .00000058  00000-0  00000+0 0  9994
2 41174  54.9211 182.0982 0006500 289.0696  70.9308  1.70473907 15250
1 41174U 15079A   18154.18652552  .00000062  00000-0  00000-0 0  9990
2 41174  54.9214 182.0173 0006546 289.0223  70.9645  1.70473888 14892
1 41174U 15079A   18154.18652570  .00000062  00000-0  00000+0 0  9999
2 41174  54.9214 182.0173 0006541 289.0177  70.9691  1.70473884 15309
1 41174U 15079A   18155.35968825  .00000067  00000-0  00000-0 0  9998
2 41174  54.9215 181.9849 0006563 289.0487  70.9358  1.70473892 15327
1 41174U 15079A   18157.11944091  .00000077  00000-0  00000+0 0  9993
2 41174  54.9218 181.9364 0006590 289.1394  70.8464  1.70473862 15357
1 41174U 15079A   18158.29261461  .00000085  00000-0  00000+0 0  9995
2 41174  54.9219 181.9040 0006590 289.2246  70.7647  1.70473813 15376
1 41174U 15079A   18160.05237506  .00000096  00000-0  00000+0 0  9997
2 41174  54.9221 181.8554 0006606 289.3516  70.6434  1.70473771 15407
1 41174U 15079A   18161.22554540  .00000101  00000-0  00000+0 0  9994
2 41174  54.9223 181.8230 0006639 289.5159  70.4810  1.70473728 15421
1 41174U 15079A   18162.39871135  .00000102  00000-0  00000-0 0  9997
2 41174  54.9225 181.7906 0006649 289.5554  70.4402  1.70473691 15035
1 41174U 15079A   18162.39871136  .00000102  00000-0  00000+0 0  9997
2 41174  54.9224 181.7906 0006645 289.5588  70.4368  1.70473699 15441
1 41174U 15079A   18163.57187080  .00000098  00000-0  00000+0 0  9990
2 41174  54.9224 181.7582 0006658 289.6057  70.3846  1.70473655 15461
1 41174U 15079A   18164.15844723  .00000095  00000-0  00000-0 0  9997
2 41174  54.9225 181.7420 0006673 289.6851  70.3012  1.70473658 15066
1 41174U 15079A   18164.15844774  .00000095  00000-0  00000-0 0  9993
2 41174  54.9225 181.7420 0006674 289.7499  70.2363  1.70473634 15068
1 41174U 15079A   18166.50475102  .00000075  00000-0  00000+0 0  9996
2 41174  54.9229 181.6772 0006689 289.9987  69.9672  1.70473581 15510
1 41174U 15079A   18167.09132739  .00000071  00000-0  00000-0 0  9994
2 41174  54.9228 181.6610 0006682 289.9626  69.9988  1.70473589 15117
1 41174U 15079A   18168.85106564  .00000064  00000-0  00000-0 0  9998
2 41174  54.9231 181.6124 0006687 290.1947  69.7579  1.70473565 15552
1 41174U 15079A   18169.43764803  .00000065  00000-0  00000-0 0  9990
2 41174  54.9232 181.5961 0006693 290.2460  69.7055  1.70473574 15154
1 41174U 15079A   18170.02423291  .00000066  00000-0  00000-0 0  9991
2 41174  54.9233 181.5799 0006691 290.2776  69.6740  1.70473557 15579
1 41174U 15079A   18172.95716442  .00000076  00000-0  00000-0 0  9999
2 41174  54.9237 181.4990 0006710 290.4966  69.4615  1.70473595 15627
1 41174U 15079A   18174.13033510  .00000076  00000-0  00000+0 0  9998
2 41174  54.9237 181.4666 0006714 290.5604  69.3990  1.70473610 15646
1 41174U 15079A   18174.71691885  .00000075  00000-0  00000-0 0  9997
2 41174  54.9238 181.4504 0006717 290.5905  69.3686  1.70473610 15243
1 41174U 15079A   18175.30350031  .00000074  00000-0  00000-0 0  9997
2 41174  54.9239 181.4342 0006714 290.6634  69.2948  1.70473658 15254
1 41174U 15079A   18175.30350083  .00000074  00000-0  00000+0 0  9993
2 41174  54.9239 181.4343 0006718 290.6768  69.2813  1.70473638 15661
1 41174U 15079A   18176.47666315  .00000069  00000-0  00000+0 0  9994
2 41174  54.9241 181.4019 0006711 290.7881  69.1661  1.70473648 15687
1 41174U 15079A   18177.06324341  .00000067  00000-0  00000-0 0  9999
2 41174  54.9241 181.3857 0006710 290.7973  69.1542  1.70473631 15283
1 41174U 15079A   18178.23640165  .00000063  00000-0  00000+0 0  9999
2 41174  54.9242 181.3534 0006701 290.8840  69.0609  1.70473632 15712
1 41174U 15079A   18179.40955830  .00000061  00000-0  00000+0 0  9995
2 41174  54.9244 181.3210 0006694 290.8791  69.0587  1.70473654 15732
1 41174U 15079A   18179.40955830  .00000061  00000-0  00000-0 0  9996
2 41174  54.9244 181.3210 0006694 290.8791  69.0587  1.70473654 15327
1 41174U 15079A   18181.16929803  .00000063  00000-0  00000+0 0  9994
2 41174  54.9245 181.2726 0006701 290.9695  68.9596  1.70473634 15766
1 41174U 15079A   18184.10221455  .00000073  00000-0  00000-0 0  9991
2 41174  54.9247 181.1917 0006699 291.1811  68.7449  1.70473600 15407
1 41174U 15079A   18184.10221486  .00000073  00000-0  00000+0 0  9994
2 41174  54.9247 181.1917 0006699 291.1856  68.7404  1.70473593 15813
1 41174U 15079A   18185.27538923  .00000079  00000-0  00000+0 0  9996
2 41174  54.9248 181.1594 0006687 291.3316  68.5973  1.70473551 15830
1 41174U 15079A   18185.86197717  .00000082  00000-0  00000-0 0  9998
2 41174  54.9249 181.1433 0006678 291.4370  68.4940  1.70473523 15432
1 41174U 15079A   18186.44856441  .00000085  00000-0  00000+0 0  9991
2 41174  54.9250 181.1270 0006676 291.5012  68.4318  1.70473528 15855
1 41174U 15079A   18186.44856441  .00000085  00000-0  00000-0 0  9992
2 41174  54.9250 181.1270 0006676 291.5012  68.4318  1.70473528 15440
1 41174U 15079A   18186.91858149  .00000088  00000-0  00000+0 0  9993
2 41174  54.9231 181.1136 0006586 288.1044   0.2879  1.70473539 15861
1 41174U 15079A   18189.96807696  .00000092  00000-0  00000+0 0  9997
2 41174  54.9252 181.0299 0006669 291.8525  68.0835  1.70473441 15912
1 41174U 15079A   18191.14123798  .00000086  00000-0  00000+0 0  9997
2 41174  54.9253 180.9975 0006667 292.0677  67.8625  1.70473382 15931
1 41174U 15079A   18193.48754634  .00000065  00000-0  00000+0 0  9992
2 41174  54.9255 180.9328 0006650 292.3616  67.5498  1.70473349 15975
1 41174U 15079A   18195.24728030  .00000051  00000-0  00000+0 0  9994
2 41174  54.9257 180.8842 0006628 292.6579  67.2418  1.70473378 16009
